{
  "type": "FeatureCollection",
  "features": [
    {
      "type": "Feature",
      "properties": {
        "norad_id": 30416,
        "name": "FENGYUN 1C DEB",
        "group": "fengyun-1c-debris",
        "lat": -60.008465489316,
        "lon": 34.504337452344714,
        "alt_km": 918.2519795968419,
        "timestamp": "2025-12-20T16:47:36.562940+00:00",
        "meta_object_name": "FENGYUN 1C DEB",
        "meta_object_id": "1999-025AEF",
        "meta_epoch": "2025-12-20T08:31:40.052352",
        "meta_mean_motion": 14.02640967,
        "meta_eccentricity": 0.005573,
        "meta_inclination": 98.8352,
        "meta_ra_of_asc_node": 18.5366,
        "meta_arg_of_pericenter": 168.6833,
        "meta_mean_anomaly": 191.56,
        "meta_ephemeris_type": 0,
        "meta_classification_type": "U",
        "meta_norad_cat_id": 30416,
        "meta_element_set_no": 999,
        "meta_rev_at_epoch": 96731,
        "meta_bstar": 0.00042717,
        "meta_mean_motion_dot": 6.25e-06,
        "meta_mean_motion_ddot": 0,
        "tle_line1": "1 30416U 99025AEF 25354.35532468  .00000625  00000+0  42717-3 0  9990",
        "tle_line2": "2 30416  98.8352  18.5366 0055730 168.6833 191.5600 14.02640967967312"
      },
      "geometry": {
        "type": "Point",
        "coordinates": [
          34.504337452344714,
          -60.008465489316
        ]
      }
    },
    {
      "type": "Feature",
      "properties": {
        "norad_id": 30417,
        "name": "FENGYUN 1C DEB",
        "group": "fengyun-1c-debris",
        "lat": 38.95789935601922,
        "lon": 171.5802589085405,
        "alt_km": 806.1066785187031,
        "timestamp": "2025-12-20T16:47:36.562952+00:00",
        "meta_object_name": "FENGYUN 1C DEB",
        "meta_object_id": "1999-025AEG",
        "meta_epoch": "2025-12-19T21:46:12.880128",
        "meta_mean_motion": 14.14670137,
        "meta_eccentricity": 0.0064608,
        "meta_inclination": 98.6932,
        "meta_ra_of_asc_node": 343.7023,
        "meta_arg_of_pericenter": 99.7835,
        "meta_mean_anomaly": 325.6514,
        "meta_ephemeris_type": 0,
        "meta_classification_type": "U",
        "meta_norad_cat_id": 30417,
        "meta_element_set_no": 999,
        "meta_rev_at_epoch": 97490,
        "meta_bstar": 0.00020334,
        "meta_mean_motion_dot": 3.57e-06,
        "meta_mean_motion_ddot": 0,
        "tle_line1": "1 30417U 99025AEG 25353.90709352  .00000357  00000+0  20334-3 0  9992",
        "tle_line2": "2 30417  98.6932 343.7023 0064608  99.7835 325.6514 14.14670137974900"
      },
      "geometry": {
        "type": "Point",
        "coordinates": [
          171.5802589085405,
          38.95789935601922
        ]
      }
    },
    {
      "type": "Feature",
      "properties": {
        "norad_id": 30418,
        "name": "FENGYUN 1C DEB",
        "group": "fengyun-1c-debris",
        "lat": 67.10265472927492,
        "lon": -3.0356878323806358,
        "alt_km": 536.3930135329101,
        "timestamp": "2025-12-20T16:47:36.562962+00:00",
        "meta_object_name": "FENGYUN 1C DEB",
        "meta_object_id": "1999-025AEH",
        "meta_epoch": "2025-12-20T09:58:35.680800",
        "meta_mean_motion": 14.84307221,
        "meta_eccentricity": 0.0111135,
        "meta_inclination": 98.8404,
        "meta_ra_of_asc_node": 155.0273,
        "meta_arg_of_pericenter": 91.3009,
        "meta_mean_anomaly": 302.5599,
        "meta_ephemeris_type": 0,
        "meta_classification_type": "U",
        "meta_norad_cat_id": 30418,
        "meta_element_set_no": 999,
        "meta_rev_at_epoch": 706,
        "meta_bstar": 0.00051979,
        "meta_mean_motion_dot": 4.796e-05,
        "meta_mean_motion_ddot": 0,
        "tle_line1": "1 30418U 99025AEH 25354.41569075  .00004796  00000+0  51979-3 0  9996",
        "tle_line2": "2 30418  98.8404 155.0273 0111135  91.3009 302.5599 14.84307221  7066"
      },
      "geometry": {
        "type": "Point",
        "coordinates": [
          -3.0356878323806358,
          67.10265472927492
        ]
      }
    },
    {
      "type": "Feature",
      "properties": {
        "norad_id": 30419,
        "name": "FENGYUN 1C DEB",
        "group": "fengyun-1c-debris",
        "lat": 58.344156765823264,
        "lon": 137.12124535843228,
        "alt_km": 843.6665494375247,
        "timestamp": "2025-12-20T16:47:36.562972+00:00",
        "meta_object_name": "FENGYUN 1C DEB",
        "meta_object_id": "1999-025AEJ",
        "meta_epoch": "2025-12-19T20:00:27.679680",
        "meta_mean_motion": 14.18061239,
        "meta_eccentricity": 0.00529068,
        "meta_inclination": 99.2412,
        "meta_ra_of_asc_node": 300.9091,
        "meta_arg_of_pericenter": 5.3321,
        "meta_mean_anomaly": 15.598,
        "meta_ephemeris_type": 0,
        "meta_classification_type": "U",
        "meta_norad_cat_id": 30419,
        "meta_element_set_no": 999,
        "meta_rev_at_epoch": 97449,
        "meta_bstar": 0.00057877077,
        "meta_mean_motion_dot": 1.155e-05,
        "meta_mean_motion_ddot": 0,
        "tle_line1": "1 30419U 99025AEJ 25353.83365370  .00001155  00000+0  57877-3 0  9993",
        "tle_line2": "2 30419  99.2412 300.9091 0052906   5.3321  15.5980 14.18061239974490"
      },
      "geometry": {
        "type": "Point",
        "coordinates": [
          137.12124535843228,
          58.344156765823264
        ]
      }
    },
    {
      "type": "Feature",
      "properties": {
        "norad_id": 30432,
        "name": "FENGYUN 1C DEB",
        "group": "fengyun-1c-debris",
        "lat": 40.37410730083786,
        "lon": -113.76844148895141,
        "alt_km": 748.0479072418757,
        "timestamp": "2025-12-20T16:47:36.562983+00:00",
        "meta_object_name": "FENGYUN 1C DEB",
        "meta_object_id": "1999-025AET",
        "meta_epoch": "2025-12-20T11:36:17.771328",
        "meta_mean_motion": 14.40711892,
        "meta_eccentricity": 0.0082535,
        "meta_inclination": 98.8359,
        "meta_ra_of_asc_node": 253.6087,
        "meta_arg_of_pericenter": 315.9858,
        "meta_mean_anomaly": 43.4778,
        "meta_ephemeris_type": 0,
        "meta_classification_type": "U",
        "meta_norad_cat_id": 30432,
        "meta_element_set_no": 999,
        "meta_rev_at_epoch": 98846,
        "meta_bstar": 0.00048287,
        "meta_mean_motion_dot": 1.557e-05,
        "meta_mean_motion_ddot": 0,
        "tle_line1": "1 30432U 99025AET 25354.48353902  .00001557  00000+0  48287-3 0  9999",
        "tle_line2": "2 30432  98.8359 253.6087 0082535 315.9858  43.4778 14.40711892988464"
      },
      "geometry": {
        "type": "Point",
        "coordinates": [
          -113.76844148895141,
          40.37410730083786
        ]
      }
    },
    {
      "type": "Feature",
      "properties": {
        "norad_id": 30434,
        "name": "FENGYUN 1C DEB",
        "group": "fengyun-1c-debris",
        "lat": -18.84259089063694,
        "lon": 158.16692232064156,
        "alt_km": 844.365489038827,
        "timestamp": "2025-12-20T16:47:36.562993+00:00",
        "meta_object_name": "FENGYUN 1C DEB",
        "meta_object_id": "1999-025AEV",
        "meta_epoch": "2025-12-19T22:50:38.644224",
        "meta_mean_motion": 13.90656979,
        "meta_eccentricity": 0.0120955,
        "meta_inclination": 98.9996,
        "meta_ra_of_asc_node": 340.5427,
        "meta_arg_of_pericenter": 211.4787,
        "meta_mean_anomaly": 205.5546,
        "meta_ephemeris_type": 0,
        "meta_classification_type": "U",
        "meta_norad_cat_id": 30434,
        "meta_element_set_no": 999,
        "meta_rev_at_epoch": 95807,
        "meta_bstar": 0.00021127,
        "meta_mean_motion_dot": 2.36e-06,
        "meta_mean_motion_ddot": 0,
        "tle_line1": "1 30434U 99025AEV 25353.95183616  .00000236  00000+0  21127-3 0  9992",
        "tle_line2": "2 30434  98.9996 340.5427 0120955 211.4787 205.5546 13.90656979958074"
      },
      "geometry": {
        "type": "Point",
        "coordinates": [
          158.16692232064156,
          -18.84259089063694
        ]
      }
    },
    {
      "type": "Feature",
      "properties": {
        "norad_id": 30435,
        "name": "FENGYUN 1C DEB",
        "group": "fengyun-1c-debris",
        "lat": -80.12211945040377,
        "lon": 46.36509845204147,
        "alt_km": 1125.225302744031,
        "timestamp": "2025-12-20T16:47:36.563003+00:00",
        "meta_object_name": "FENGYUN 1C DEB",
        "meta_object_id": "1999-025AEW",
        "meta_epoch": "2025-12-20T10:52:22.465920",
        "meta_mean_motion": 13.79646173,
        "meta_eccentricity": 0.0208401,
        "meta_inclination": 99.0172,
        "meta_ra_of_asc_node": 340.3605,
        "meta_arg_of_pericenter": 91.2055,
        "meta_mean_anomaly": 38.4008,
        "meta_ephemeris_type": 0,
        "meta_classification_type": "U",
        "meta_norad_cat_id": 30435,
        "meta_element_set_no": 999,
        "meta_rev_at_epoch": 94266,
        "meta_bstar": 0.0012323,
        "meta_mean_motion_dot": 1.457e-05,
        "meta_mean_motion_ddot": 0,
        "tle_line1": "1 30435U 99025AEW 25354.45303780  .00001457  00000+0  12323-2 0  9998",
        "tle_line2": "2 30435  99.0172 340.3605 0208401  91.2055  38.4008 13.79646173942660"
      },
      "geometry": {
        "type": "Point",
        "coordinates": [
          46.36509845204147,
          -80.12211945040377
        ]
      }
    }
  ]
}